[{"id":1,"name":"Jorok Dalam","street":"9439 Crescent Oaks Pass"},
{"id":2,"name":"Nganane","street":"1 Cardinal Plaza"},
{"id":3,"name":"Kishk-e Nakhūd","street":"0881 Fallview Trail"},
{"id":4,"name":"Mojomulyokrajan","street":"53 Memorial Place"},
{"id":5,"name":"Huangbei","street":"90 Cardinal Park"},
{"id":6,"name":"Kalengwa","street":"834 Westridge Crossing"},
{"id":7,"name":"Kutao","street":"48669 Meadow Valley Park"},
{"id":8,"name":"Yuxarı Aran","street":"0818 Melby Street"},
{"id":9,"name":"Datong","street":"0 Glacier Hill Terrace"},
{"id":10,"name":"Lunéville","street":"6317 Armistice Alley","postal_code":"54304 CEDEX"},
{"id":11,"name":"Gargaliánoi","street":"96493 Burning Wood Hill"},
{"id":12,"name":"Légua","street":"59698 Schiller Place","postal_code":"3830-247"},
{"id":13,"name":"Pakuranga","street":"31918 Sycamore Street","postal_code":"2140"},
{"id":14,"name":"Sobue","street":"858 5th Junction","postal_code":"503-1305"},
{"id":15,"name":"Ożarów","street":"25750 Transport Circle","postal_code":"27-530"},
{"id":16,"name":"Shaoxing","street":"04202 Mockingbird Junction"},
{"id":17,"name":"Haimen","street":"9 Cherokee Drive"},
{"id":18,"name":"Languan","street":"5746 Mandrake Junction"},
{"id":19,"name":"Biny Selo","street":"7 Loomis Place"},
{"id":20,"name":"Liudaogou","street":"921 Ruskin Plaza"},
{"id":21,"name":"Mỏ Cày","street":"2 Banding Way"},
{"id":22,"name":"Morón","street":"623 Northland Street","postal_code":"1765"},
{"id":23,"name":"Argasari","street":"5 Pawling Junction"},
{"id":24,"name":"Estefania","street":"52 Jackson Lane","postal_code":"3505"},
{"id":25,"name":"Guingamp","street":"658 Waubesa Avenue","postal_code":"22204 CEDEX"},
{"id":26,"name":"Kyonju","street":"15 Donald Center"},
{"id":27,"name":"Maramag","street":"0292 Gina Park","postal_code":"8714"},
{"id":28,"name":"Dogondoutchi","street":"44530 Holy Cross Road"},
{"id":29,"name":"Vouani","street":"6048 Riverside Hill"},
{"id":30,"name":"Hagonoy","street":"56 1st Point","postal_code":"8006"},
{"id":31,"name":"Ptghunk’","street":"0663 Elka Lane"},
{"id":32,"name":"Chợ Mới","street":"50 Muir Way"},
{"id":33,"name":"Kaleybar","street":"12 Sutteridge Park"},
{"id":34,"name":"Batuidu","street":"5622 Myrtle Way"},
{"id":35,"name":"Longxing","street":"44244 Lillian Terrace"},
{"id":36,"name":"Évreux","street":"17945 Dottie Drive","postal_code":"27009 CEDEX"},
{"id":37,"name":"Apitong","street":"03598 Lyons Lane","postal_code":"4405"},
{"id":38,"name":"Osieck","street":"18 Mccormick Lane","postal_code":"08-445"},
{"id":39,"name":"Colonia Yguazú","street":"24 Stang Road"},
{"id":40,"name":"Chernomorskiy","street":"73 Oxford Point","postal_code":"353265"},
{"id":41,"name":"Purong","street":"79 Bultman Park"},
{"id":42,"name":"Nanlu","street":"1 Talisman Court"},
{"id":43,"name":"Mino","street":"8 Superior Way","postal_code":"709-4306"},
{"id":44,"name":"Nezlobnaya","street":"79160 Mayer Avenue","postal_code":"357839"},
{"id":45,"name":"Batasan","street":"4709 Harper Court","postal_code":"9401"},
{"id":46,"name":"Domašinec","street":"59606 Pearson Park","postal_code":"40318"},
{"id":47,"name":"Palmar de Varela","street":"74422 Londonderry Avenue","postal_code":"083087"},
{"id":48,"name":"Gupakan","street":"91 Farmco Hill"},
{"id":49,"name":"Waterloo","street":"22562 Homewood Park","postal_code":"V9J"},
{"id":50,"name":"Shkurinskaya","street":"0 Fulton Court","postal_code":"352000"},
{"id":51,"name":"Bürenhayrhan","street":"73 Farwell Plaza"},
{"id":52,"name":"Shuikou","street":"4 Myrtle Place"},
{"id":53,"name":"Myhove","street":"68159 Kings Park"},
{"id":54,"name":"Skopje","street":"53 Mariners Cove Court","postal_code":"1040"},
{"id":55,"name":"Dalgān","street":"874 Banding Terrace"},
{"id":56,"name":"Angers","street":"1 Kedzie Drive","postal_code":"49066 CEDEX 01"},
{"id":57,"name":"Skellefteå","street":"15 Bayside Center","postal_code":"931 52"},
{"id":58,"name":"Caja","street":"47266 Pierstorff Street"},
{"id":59,"name":"Odzi","street":"7351 Anderson Court"},
{"id":60,"name":"Horní Cerekev","street":"575 Waxwing Circle","postal_code":"394 03"},
{"id":61,"name":"Buenavista","street":"6037 Jenna Park","postal_code":"8601"},
{"id":62,"name":"Tucuruí","street":"706 Homewood Center","postal_code":"68455-000"},
{"id":63,"name":"Fiães","street":"974 Karstens Drive","postal_code":"4505-224"},
{"id":64,"name":"La Seyne-sur-Mer","street":"06473 Fairfield Drive","postal_code":"83514 CEDEX"},
{"id":65,"name":"Sukojember","street":"58633 Forest Dale Trail"},
{"id":66,"name":"Lampa","street":"58384 Hauk Terrace"},
{"id":67,"name":"Cicayur","street":"9 Banding Road"},
{"id":68,"name":"Tarīm","street":"27006 Stephen Center"},
{"id":69,"name":"Dananshan","street":"65751 Eastwood Trail"},
{"id":70,"name":"Oetutulul","street":"54 Chinook Crossing"},
{"id":71,"name":"Lupon","street":"33561 Hovde Parkway","postal_code":"6405"},
{"id":72,"name":"Peranap","street":"869 Carey Circle"},
{"id":73,"name":"Kavadarci","street":"4 Chive Pass","postal_code":"1430"},
{"id":74,"name":"Nicosia","street":"14109 Algoma Road"},
{"id":75,"name":"Accha","street":"2776 Stang Crossing"},
{"id":76,"name":"Baltimore","street":"5478 Lakewood Parkway","postal_code":"21229"},
{"id":77,"name":"Razgrad","street":"1230 Haas Alley","postal_code":"7219"},
{"id":78,"name":"Jales","street":"02 Longview Way","postal_code":"15700-000"},
{"id":79,"name":"Vendargues","street":"3 Toban Lane","postal_code":"34747 CEDEX"},
{"id":80,"name":"Všeruby","street":"8 Farmco Circle","postal_code":"330 16"},
{"id":81,"name":"Comandante Fontana","street":"659 Dwight Center","postal_code":"3620"},
{"id":82,"name":"El Corozal","street":"713 Garrison Hill"},
{"id":83,"name":"Gradil","street":"4502 Cody Alley","postal_code":"2665-105"},
{"id":84,"name":"Markaz-e Woluswalī-ye Āchīn","street":"0 Sunnyside Court"},
{"id":85,"name":"Causip","street":"9 Onsgard Road","postal_code":"4430"},
{"id":86,"name":"Fengcun","street":"717 Washington Hill"},
{"id":87,"name":"Amuru","street":"3 Declaration Court"},
{"id":88,"name":"Petäjävesi","street":"8943 Forest Dale Pass","postal_code":"41901"},
{"id":89,"name":"Kijini","street":"1095 Prairieview Hill"},
{"id":90,"name":"Temperak","street":"33533 Delladonna Way"},
{"id":91,"name":"Olhos de Água","street":"4312 Bartelt Plaza","postal_code":"2950-682"},
{"id":92,"name":"Carrigaline","street":"74 Old Gate Drive","postal_code":"P43"},
{"id":93,"name":"Eksjö","street":"7 Fairfield Center","postal_code":"575 28"},
{"id":94,"name":"Zhashkiv","street":"9 Columbus Parkway"},
{"id":95,"name":"Lukavice","street":"55629 Pearson Terrace","postal_code":"789 01"},
{"id":96,"name":"Mantes-la-Jolie","street":"2 Quincy Junction","postal_code":"78204 CEDEX"},
{"id":97,"name":"Wuxue Shi","street":"68134 Talmadge Road"},
{"id":98,"name":"Kfar NaOranim","street":"5 Claremont Court"},
{"id":99,"name":"Pueai Noi","street":"99 Merrick Junction","postal_code":"40340"},
{"id":100,"name":"Darovskoy","street":"2 Warner Road","postal_code":"612140"}]